start=new Date('%Y-%m-27T00:00:00.000Z').valueOf();
sats=[{"CLASSIFICATION_TYPE":"U","TIME_SYSTEM":"UTC","INCLINATION":"53.0547","PERIAPSIS":"545.675","MEAN_MOTION":"15.06402990","OBJECT_NAME":"STARLINK-2321","OBJECT_ID":"2021-021H","PERIOD":"95.592","APOAPSIS":"548.734","GP_ID":"183214450","RA_OF_ASC_NODE":"158.6015","TLE_LINE1":"1 47867U 21021H   21233.58342410 -.00000846  00000-0 -37875-4 0  9990","MEAN_MOTION_DDOT":"0.0000000000000","MEAN_ANOMALY":"277.0825","COUNTRY_CODE":"US","MEAN_ELEMENT_THEORY":"SGP4","RCS_SIZE":"MEDIUM","REV_AT_EPOCH":"2592","MEAN_MOTION_DOT":"-0.00000846","CENTER_NAME":"EARTH","FILE":"3101032","BSTAR":"-0.00003787500000","REF_FRAME":"TEME","EPHEMERIS_TYPE":"0","OBJECT_TYPE":"PAYLOAD","EPOCH":"2021-08-21T14:00:07.842240","ELEMENT_SET_NO":"999","SEMIMAJOR_AXIS":"6925.339","NORAD_CAT_ID":"47867","SITE":"AFETR","LAUNCH_DATE":"2021-03-14","ECCENTRICITY":"0.00022080","DECAY_DATE":null,"ARG_OF_PERICENTER":"83.0415","TLE_LINE2":"2 47867  53.0547 158.6015 0002208  83.0415 277.0825 15.06402990 25922"},{"DECAY_DATE":null,"ARG_OF_PERICENTER":"14.7285","TLE_LINE2":"2 47868  53.0485 142.7329 0004064  14.7285 345.3850 15.73232075 26189","ELEMENT_SET_NO":"999","NORAD_CAT_ID":"47868","SEMIMAJOR_AXIS":"6727.804","SITE":"AFETR","ECCENTRICITY":"0.00040640","LAUNCH_DATE":"2021-03-14","BSTAR":"0.00004800900000","REF_FRAME":"TEME","EPHEMERIS_TYPE":"0","OBJECT_TYPE":"PAYLOAD","EPOCH":"2021-08-21T11:13:39.306720","MEAN_ELEMENT_THEORY":"SGP4","RCS_SIZE":"LARGE","REV_AT_EPOCH":"2618","MEAN_MOTION_DOT":"0.00006130","CENTER_NAME":"EARTH","FILE":"3100831","RA_OF_ASC_NODE":"142.7329","TLE_LINE1":"1 47868U 21021J   21233.46781605  .00006130  00000-0  48009-4 0  9992","MEAN_MOTION_DDOT":"0.0000000000000","MEAN_ANOMALY":"345.3850","COUNTRY_CODE":"US","OBJECT_ID":"2021-021J","APOAPSIS":"352.403","PERIOD":"91.531","GP_ID":"183187073","INCLINATION":"53.0485","PERIAPSIS":"346.935","MEAN_MOTION":"15.73232075","OBJECT_NAME":"STARLINK-2323","CLASSIFICATION_TYPE":"U","TIME_SYSTEM":"UTC"},{"RCS_SIZE":"LARGE","MEAN_ELEMENT_THEORY":"SGP4","MEAN_MOTION_DOT":"-0.00000863","REV_AT_EPOCH":"2606","CENTER_NAME":"EARTH","FILE":"3100831","BSTAR":"-0.00003902600000","REF_FRAME":"TEME","EPHEMERIS_TYPE":"0","EPOCH":"2021-08-21T12:19:17.113728","OBJECT_TYPE":"PAYLOAD","SEMIMAJOR_AXIS":"6925.356","NORAD_CAT_ID":"47869","ELEMENT_SET_NO":"999","ECCENTRICITY":"0.00021480","LAUNCH_DATE":"2021-03-14","SITE":"AFETR","DECAY_DATE":null,"TLE_LINE2":"2 47869  53.0559 158.9168 0002148  78.5187 281.6043 15.06397447 26066","ARG_OF_PERICENTER":"78.5187","CLASSIFICATION_TYPE":"U","TIME_SYSTEM":"UTC","PERIAPSIS":"545.734","INCLINATION":"53.0559","MEAN_MOTION":"15.06397447","OBJECT_NAME":"STARLINK-2324","OBJECT_ID":"2021-021K","GP_ID":"183186824","APOAPSIS":"548.709","PERIOD":"95.592","RA_OF_ASC_NODE":"158.9168","TLE_LINE1":"1 47869U 21021K   21233.51339252 -.00000863  00000-0 -39026-4 0  9994","MEAN_ANOMALY":"281.6043","MEAN_MOTION_DDOT":"0.0000000000000","COUNTRY_CODE":"US"},{"RA_OF_ASC_NODE":"183.5752","TLE_LINE1":"1 47870U 21021L   21233.58938142  .00000689  00000-0  65156-4 0  9993","MEAN_MOTION_DDOT":"0.0000000000000","MEAN_ANOMALY":"319.7229","COUNTRY_CODE":"US","OBJECT_ID":"2021-021L","APOAPSIS":"548.214","PERIOD":"95.592","GP_ID":"183213700","INCLINATION":"53.0561","PERIAPSIS":"546.204","MEAN_MOTION":"15.06401431","OBJECT_NAME":"STARLINK-2326","CLASSIFICATION_TYPE":"U","TIME_SYSTEM":"UTC","DECAY_DATE":null,"ARG_OF_PERICENTER":"40.3867","TLE_LINE2":"2 47870  53.0561 183.5752 0001451  40.3867 319.7229 15.06401431 25519","ELEMENT_SET_NO":"999","NORAD_CAT_ID":"47870","SEMIMAJOR_AXIS":"6925.344","SITE":"AFETR","LAUNCH_DATE":"2021-03-14","ECCENTRICITY":"0.00014510","BSTAR":"0.00006515600000","REF_FRAME":"TEME","EPHEMERIS_TYPE":"0","OBJECT_TYPE":"PAYLOAD","EPOCH":"2021-08-21T14:08:42.554688","MEAN_ELEMENT_THEORY":"SGP4","RCS_SIZE":"LARGE","REV_AT_EPOCH":"2551","MEAN_MOTION_DOT":"0.00000689","CENTER_NAME":"EARTH","FILE":"3101032"},{"COUNTRY_CODE":"US","MEAN_MOTION_DDOT":"0.0000000000000","MEAN_ANOMALY":"288.6094","TLE_LINE1":"1 47871U 21021M   21233.50969119  .00000884  00000-0  78266-4 0  9997","RA_OF_ASC_NODE":"158.9331","GP_ID":"183192710","PERIOD":"95.592","APOAPSIS":"548.652","OBJECT_ID":"2021-021M","OBJECT_NAME":"STARLINK-2327","MEAN_MOTION":"15.06404097","PERIAPSIS":"545.750","INCLINATION":"53.0558","TIME_SYSTEM":"UTC","CLASSIFICATION_TYPE":"U","TLE_LINE2":"2 47871  53.0558 158.9331 0002095  71.5123 288.6094 15.06404097 25482","ARG_OF_PERICENTER":"71.5123","DECAY_DATE":null,"LAUNCH_DATE":"2021-03-14","ECCENTRICITY":"0.00020950","SITE":"AFETR","SEMIMAJOR_AXIS":"6925.336","NORAD_CAT_ID":"47871","ELEMENT_SET_NO":"999","EPOCH":"2021-08-21T12:13:57.318816","OBJECT_TYPE":"PAYLOAD","EPHEMERIS_TYPE":"0","REF_FRAME":"TEME","BSTAR":"0.00007826600000","FILE":"3101015","CENTER_NAME":"EARTH","MEAN_MOTION_DOT":"0.00000884","REV_AT_EPOCH":"2548","RCS_SIZE":"LARGE","MEAN_ELEMENT_THEORY":"SGP4"},{"MEAN_MOTION_DDOT":"0.0000000000000","MEAN_ANOMALY":"352.9106","COUNTRY_CODE":"US","RA_OF_ASC_NODE":"142.7339","TLE_LINE1":"1 47872U 21021N   21233.46759957  .00014724  00000-0  10895-3 0  9991","OBJECT_ID":"2021-021N","APOAPSIS":"352.479","PERIOD":"91.531","GP_ID":"183192406","MEAN_MOTION":"15.73235147","OBJECT_NAME":"STARLINK-2328","INCLINATION":"53.0477","PERIAPSIS":"346.841","CLASSIFICATION_TYPE":"U","TIME_SYSTEM":"UTC","ARG_OF_PERICENTER":"7.1972","TLE_LINE2":"2 47872  53.0477 142.7339 0004190   7.1972 352.9106 15.73235147 25691","DECAY_DATE":null,"ELEMENT_SET_NO":"999","NORAD_CAT_ID":"47872","SEMIMAJOR_AXIS":"6727.795","SITE":"AFETR","LAUNCH_DATE":"2021-03-14","ECCENTRICITY":"0.00041900","EPHEMERIS_TYPE":"0","OBJECT_TYPE":"PAYLOAD","EPOCH":"2021-08-21T11:13:20.602848","BSTAR":"0.00010895000000","REF_FRAME":"TEME","CENTER_NAME":"EARTH","FILE":"3101016","MEAN_ELEMENT_THEORY":"SGP4","RCS_SIZE":"LARGE","REV_AT_EPOCH":"2569","MEAN_MOTION_DOT":"0.00014724"},{"OBJECT_NAME":"STARLINK-2329","MEAN_MOTION":"15.06392422","PERIAPSIS":"545.652","INCLINATION":"53.0456","TIME_SYSTEM":"UTC","CLASSIFICATION_TYPE":"U","COUNTRY_CODE":"US","MEAN_ANOMALY":"281.1421","MEAN_MOTION_DDOT":"0.0000000000000","TLE_LINE1":"1 47873U 21021P   21233.88935763 -.00001107  00000-0 -55409-4 0  9993","RA_OF_ASC_NODE":"157.2963","GP_ID":"183213953","APOAPSIS":"548.821","PERIOD":"95.593","OBJECT_ID":"2021-021P","EPOCH":"2021-08-21T21:20:40.499232","OBJECT_TYPE":"PAYLOAD","EPHEMERIS_TYPE":"0","REF_FRAME":"TEME","BSTAR":"-0.00005540900000","FILE":"3101032","CENTER_NAME":"EARTH","MEAN_MOTION_DOT":"-0.00001107","REV_AT_EPOCH":"2600","RCS_SIZE":"LARGE","MEAN_ELEMENT_THEORY":"SGP4","TLE_LINE2":"2 47873  53.0456 157.2963 0002288  78.9826 281.1421 15.06392422 26008","ARG_OF_PERICENTER":"78.9826","DECAY_DATE":null,"LAUNCH_DATE":"2021-03-14","ECCENTRICITY":"0.00022880","SITE":"AFETR","NORAD_CAT_ID":"47873","SEMIMAJOR_AXIS":"6925.372","ELEMENT_SET_NO":"999"},{"DECAY_DATE":null,"TLE_LINE2":"2 47874  53.0480 142.7353 0004512  24.3679 335.7551 15.73242372 25697","ARG_OF_PERICENTER":"24.3679","NORAD_CAT_ID":"47874","SEMIMAJOR_AXIS":"6727.774","ELEMENT_SET_NO":"999","LAUNCH_DATE":"2021-03-14","ECCENTRICITY":"0.00045120","SITE":"AFETR","BSTAR":"0.00006179600000","REF_FRAME":"TEME","EPHEMERIS_TYPE":"0","EPOCH":"2021-08-21T11:13:29.785440","OBJECT_TYPE":"PAYLOAD","RCS_SIZE":"LARGE","MEAN_ELEMENT_THEORY":"SGP4","MEAN_MOTION_DOT":"0.00008077","REV_AT_EPOCH":"2569","CENTER_NAME":"EARTH","FILE":"3101016","RA_OF_ASC_NODE":"142.7353","TLE_LINE1":"1 47874U 21021Q   21233.46770585  .00008077  00000-0  61796-4 0  9994","MEAN_MOTION_DDOT":"0.0000000000000","MEAN_ANOMALY":"335.7551","COUNTRY_CODE":"US","OBJECT_ID":"2021-021Q","GP_ID":"183192718","APOAPSIS":"352.675","PERIOD":"91.531","PERIAPSIS":"346.604","INCLINATION":"53.0480","MEAN_MOTION":"15.73242372","OBJECT_NAME":"STARLINK-2330","CLASSIFICATION_TYPE":"U","TIME_SYSTEM":"UTC"},{"BSTAR":"0.00008845300000","REF_FRAME":"TEME","EPHEMERIS_TYPE":"0","EPOCH":"2021-08-21T13:11:01.096800","OBJECT_TYPE":"PAYLOAD","RCS_SIZE":"LARGE","MEAN_ELEMENT_THEORY":"SGP4","MEAN_MOTION_DOT":"0.00001036","REV_AT_EPOCH":"2587","CENTER_NAME":"EARTH","FILE":"3101032","DECAY_DATE":null,"TLE_LINE2":"2 47875  53.0539 168.7602 0002245  68.8848 291.2381 15.06405224 25870","ARG_OF_PERICENTER":"68.8848","NORAD_CAT_ID":"47875","SEMIMAJOR_AXIS":"6925.333","ELEMENT_SET_NO":"999","ECCENTRICITY":"0.00022450","LAUNCH_DATE":"2021-03-14","SITE":"AFETR","PERIAPSIS":"545.643","INCLINATION":"53.0539","MEAN_MOTION":"15.06405224","OBJECT_NAME":"STARLINK-2331","CLASSIFICATION_TYPE":"U","TIME_SYSTEM":"UTC","RA_OF_ASC_NODE":"168.7602","TLE_LINE1":"1 47875U 21021R   21233.54931825  .00001036  00000-0  88453-4 0  9997","MEAN_MOTION_DDOT":"0.0000000000000","MEAN_ANOMALY":"291.2381","COUNTRY_CODE":"US","OBJECT_ID":"2021-021R","GP_ID":"183214451","PERIOD":"95.592","APOAPSIS":"548.752"},{"RA_OF_ASC_NODE":"167.6118","TLE_LINE1":"1 47876U 21021S   21233.80365196  .00000741  00000-0  68634-4 0  9990","MEAN_MOTION_DDOT":"0.0000000000000","MEAN_ANOMALY":"288.3700","COUNTRY_CODE":"US","OBJECT_ID":"2021-021S","PERIOD":"95.592","APOAPSIS":"548.704","GP_ID":"183215189","INCLINATION":"53.0557","PERIAPSIS":"545.714","MEAN_MOTION":"15.06401403","OBJECT_NAME":"STARLINK-2332","CLASSIFICATION_TYPE":"U","TIME_SYSTEM":"UTC","DECAY_DATE":null,"ARG_OF_PERICENTER":"71.7524","TLE_LINE2":"2 47876  53.0557 167.6118 0002159  71.7524 288.3700 15.06401403 25865","ELEMENT_SET_NO":"999","NORAD_CAT_ID":"47876","SEMIMAJOR_AXIS":"6925.344","SITE":"AFETR","ECCENTRICITY":"0.00021590","LAUNCH_DATE":"2021-03-14","BSTAR":"0.00006863400000","REF_FRAME":"TEME","EPHEMERIS_TYPE":"0","OBJECT_TYPE":"PAYLOAD","EPOCH":"2021-08-21T19:17:15.529344","MEAN_ELEMENT_THEORY":"SGP4","RCS_SIZE":"LARGE","REV_AT_EPOCH":"2586","MEAN_MOTION_DOT":"0.00000741","CENTER_NAME":"EARTH","FILE":"3101032"}];
